start=new Date('2021-09-30T00:00:00.000Z').valueOf();
sats=[{"PERIAPSIS":"545.996","DECAY_DATE":null,"SEMIMAJOR_AXIS":"6925.362","RA_OF_ASC_NODE":"139.5923","TLE_LINE2":"2 45692  53.0541 139.5923 0001778  75.8869 284.2317 15.06395663 74343","APOAPSIS":"548.458","SITE":"AFETR","EPOCH":"2021-09-29T08:25:04.796544","CENTER_NAME":"EARTH","REF_FRAME":"TEME","FILE":"3134986","OBJECT_NAME":"STARLINK-1416","MEAN_ELEMENT_THEORY":"SGP4","TLE_LINE1":"1 45692U 20035AM  21272.35074996  .00001823  00000-0  14124-3 0  9992","MEAN_MOTION_DOT":"0.00001823","RCS_SIZE":"LARGE","COUNTRY_CODE":"US","NORAD_CAT_ID":"45692","MEAN_ANOMALY":"284.2317","OBJECT_ID":"2020-035AM","PERIOD":"95.592","LAUNCH_DATE":"2020-06-04","EPHEMERIS_TYPE":"0","BSTAR":"0.00014124000000","MEAN_MOTION_DDOT":"0.0000000000000","ELEMENT_SET_NO":"999","ARG_OF_PERICENTER":"75.8869","CLASSIFICATION_TYPE":"U","GP_ID":"185790437","TIME_SYSTEM":"UTC","REV_AT_EPOCH":"7434","MEAN_MOTION":"15.06395663","OBJECT_TYPE":"PAYLOAD","ECCENTRICITY":"0.00017780","INCLINATION":"53.0541"},{"CENTER_NAME":"EARTH","APOAPSIS":"548.677","EPOCH":"2021-09-29T08:51:37.128672","SITE":"AFETR","TLE_LINE2":"2 45693  53.0538 139.5071 0002084  83.2847 276.8379 15.06393339 74347","RA_OF_ASC_NODE":"139.5071","DECAY_DATE":null,"SEMIMAJOR_AXIS":"6925.369","PERIAPSIS":"545.791","MEAN_MOTION_DOT":"0.00000098","TLE_LINE1":"1 45693U 20035AN  21272.36917973  .00000098  00000-0  25530-4 0  9992","FILE":"3134986","MEAN_ELEMENT_THEORY":"SGP4","OBJECT_NAME":"STARLINK-1417","REF_FRAME":"TEME","CLASSIFICATION_TYPE":"U","ARG_OF_PERICENTER":"83.2847","BSTAR":"0.00002553000000","ELEMENT_SET_NO":"999","MEAN_MOTION_DDOT":"0.0000000000000","EPHEMERIS_TYPE":"0","PERIOD":"95.593","LAUNCH_DATE":"2020-06-04","NORAD_CAT_ID":"45693","MEAN_ANOMALY":"276.8379","OBJECT_ID":"2020-035AN","COUNTRY_CODE":"US","RCS_SIZE":"LARGE","INCLINATION":"53.0538","ECCENTRICITY":"0.00020840","MEAN_MOTION":"15.06393339","OBJECT_TYPE":"PAYLOAD","REV_AT_EPOCH":"7434","TIME_SYSTEM":"UTC","GP_ID":"185791187"},{"TLE_LINE1":"1 45694U 20035AP  21271.97847206  .00000315  00000-0  40054-4 0  9990","FILE":"3134986","MEAN_ELEMENT_THEORY":"SGP4","OBJECT_NAME":"STARLINK-1419","REF_FRAME":"TEME","MEAN_MOTION_DOT":"0.00000315","RA_OF_ASC_NODE":"141.2571","SEMIMAJOR_AXIS":"6925.324","DECAY_DATE":null,"PERIAPSIS":"545.802","CENTER_NAME":"EARTH","APOAPSIS":"548.577","SITE":"AFETR","EPOCH":"2021-09-28T23:28:59.985984","TLE_LINE2":"2 45694  53.0524 141.2571 0002003  80.1145 280.0070 15.06407894 74286","MEAN_MOTION":"15.06407894","OBJECT_TYPE":"PAYLOAD","TIME_SYSTEM":"UTC","REV_AT_EPOCH":"7428","GP_ID":"185789935","INCLINATION":"53.0524","ECCENTRICITY":"0.00020030","PERIOD":"95.592","LAUNCH_DATE":"2020-06-04","MEAN_ANOMALY":"280.0070","NORAD_CAT_ID":"45694","OBJECT_ID":"2020-035AP","COUNTRY_CODE":"US","RCS_SIZE":"LARGE","CLASSIFICATION_TYPE":"U","ARG_OF_PERICENTER":"80.1145","BSTAR":"0.00004005400000","ELEMENT_SET_NO":"999","MEAN_MOTION_DDOT":"0.0000000000000","EPHEMERIS_TYPE":"0"},{"PERIAPSIS":"545.784","DECAY_DATE":null,"SEMIMAJOR_AXIS":"6925.336","RA_OF_ASC_NODE":"117.4091","APOAPSIS":"548.618","SITE":"AFETR","EPOCH":"2021-09-29T20:03:02.130912","CENTER_NAME":"EARTH","TLE_LINE2":"2 45695  53.0531 117.4091 0002046  84.6110 275.5113 15.06404030 74292","FILE":"3135284","OBJECT_NAME":"STARLINK-1420","MEAN_ELEMENT_THEORY":"SGP4","TLE_LINE1":"1 45695U 20035AQ  21272.83544133  .00001811  00000-0  14041-3 0  9998","REF_FRAME":"TEME","MEAN_MOTION_DOT":"0.00001811","NORAD_CAT_ID":"45695","MEAN_ANOMALY":"275.5113","OBJECT_ID":"2020-035AQ","PERIOD":"95.592","LAUNCH_DATE":"2020-06-04","RCS_SIZE":"LARGE","COUNTRY_CODE":"US","ARG_OF_PERICENTER":"84.6110","CLASSIFICATION_TYPE":"U","EPHEMERIS_TYPE":"0","BSTAR":"0.00014041000000","ELEMENT_SET_NO":"999","MEAN_MOTION_DDOT":"0.0000000000000","MEAN_MOTION":"15.06404030","OBJECT_TYPE":"PAYLOAD","GP_ID":"185800412","REV_AT_EPOCH":"7429","TIME_SYSTEM":"UTC","INCLINATION":"53.0531","ECCENTRICITY":"0.00020460"},{"ECCENTRICITY":"0.00018550","INCLINATION":"53.0535","GP_ID":"185790937","REV_AT_EPOCH":"7429","TIME_SYSTEM":"UTC","OBJECT_TYPE":"PAYLOAD","MEAN_MOTION":"15.06361389","EPHEMERIS_TYPE":"0","MEAN_MOTION_DDOT":"0.0000000000000","ELEMENT_SET_NO":"999","BSTAR":"-0.00029957000000","ARG_OF_PERICENTER":"75.2751","CLASSIFICATION_TYPE":"U","RCS_SIZE":"LARGE","COUNTRY_CODE":"US","OBJECT_ID":"2020-035AR","MEAN_ANOMALY":"284.8443","NORAD_CAT_ID":"45696","LAUNCH_DATE":"2020-06-04","PERIOD":"95.595","MEAN_MOTION_DOT":"-0.00004736","REF_FRAME":"TEME","FILE":"3134986","OBJECT_NAME":"STARLINK-1422","MEAN_ELEMENT_THEORY":"SGP4","TLE_LINE1":"1 45696U 20035AR  21272.04854703 -.00004736  00000-0 -29957-3 0  9992","TLE_LINE2":"2 45696  53.0535 140.9433 0001855  75.2751 284.8443 15.06361389 74290","EPOCH":"2021-09-29T01:09:54.463392","SITE":"AFETR","APOAPSIS":"548.617","CENTER_NAME":"EARTH","SEMIMAJOR_AXIS":"6925.467","DECAY_DATE":null,"PERIAPSIS":"546.047","RA_OF_ASC_NODE":"140.9433"},{"MEAN_MOTION_DOT":"-0.00000220","TLE_LINE1":"1 45697U 20035AS  21272.75436259 -.00000220  00000-0  41545-5 0  9995","FILE":"3135236","MEAN_ELEMENT_THEORY":"SGP4","OBJECT_NAME":"STARLINK-1351","REF_FRAME":"TEME","CENTER_NAME":"EARTH","EPOCH":"2021-09-29T18:06:16.927776","SITE":"AFETR","APOAPSIS":"548.682","TLE_LINE2":"2 45697  53.0540 117.7701 0002102  82.6087 277.5140 15.06395844 74282","RA_OF_ASC_NODE":"117.7701","SEMIMAJOR_AXIS":"6925.361","DECAY_DATE":null,"PERIAPSIS":"545.771","INCLINATION":"53.0540","ECCENTRICITY":"0.00021020","OBJECT_TYPE":"PAYLOAD","MEAN_MOTION":"15.06395844","REV_AT_EPOCH":"7428","TIME_SYSTEM":"UTC","GP_ID":"185799384","CLASSIFICATION_TYPE":"U","ARG_OF_PERICENTER":"82.6087","ELEMENT_SET_NO":"999","MEAN_MOTION_DDOT":"0.0000000000000","BSTAR":"0.00000415450000","EPHEMERIS_TYPE":"0","LAUNCH_DATE":"2020-06-04","PERIOD":"95.592","OBJECT_ID":"2020-035AS","NORAD_CAT_ID":"45697","MEAN_ANOMALY":"277.5140","COUNTRY_CODE":"US","RCS_SIZE":"LARGE"},{"TLE_LINE2":"2 45698  53.0556 117.8330 0002163  84.0520 276.0715 15.06390066 74298","CENTER_NAME":"EARTH","EPOCH":"2021-09-29T17:50:21.616800","SITE":"AFETR","APOAPSIS":"548.742","RA_OF_ASC_NODE":"117.8330","PERIAPSIS":"545.746","DECAY_DATE":null,"SEMIMAJOR_AXIS":"6925.379","MEAN_MOTION_DOT":"-0.00000412","REF_FRAME":"TEME","TLE_LINE1":"1 45698U 20035AT  21272.74330575 -.00000412  00000-0 -87469-5 0  9998","FILE":"3135276","OBJECT_NAME":"STARLINK-1370","MEAN_ELEMENT_THEORY":"SGP4","MEAN_MOTION_DDOT":"0.0000000000000","ELEMENT_SET_NO":"999","BSTAR":"-0.00000874690000","EPHEMERIS_TYPE":"0","CLASSIFICATION_TYPE":"U","ARG_OF_PERICENTER":"84.0520","COUNTRY_CODE":"US","RCS_SIZE":"LARGE","LAUNCH_DATE":"2020-06-04","PERIOD":"95.593","OBJECT_ID":"2020-035AT","NORAD_CAT_ID":"45698","MEAN_ANOMALY":"276.0715","ECCENTRICITY":"0.00021630","INCLINATION":"53.0556","REV_AT_EPOCH":"7429","TIME_SYSTEM":"UTC","GP_ID":"185800732","OBJECT_TYPE":"PAYLOAD","MEAN_MOTION":"15.06390066"},{"OBJECT_ID":"2020-035AU","MEAN_ANOMALY":"276.6035","NORAD_CAT_ID":"45699","LAUNCH_DATE":"2020-06-04","PERIOD":"95.592","RCS_SIZE":"LARGE","COUNTRY_CODE":"US","ARG_OF_PERICENTER":"83.5206","CLASSIFICATION_TYPE":"U","EPHEMERIS_TYPE":"0","MEAN_MOTION_DDOT":"0.0000000000000","ELEMENT_SET_NO":"999","BSTAR":"0.00004007600000","OBJECT_TYPE":"PAYLOAD","MEAN_MOTION":"15.06394415","GP_ID":"185790186","REV_AT_EPOCH":"7457","TIME_SYSTEM":"UTC","INCLINATION":"53.0528","ECCENTRICITY":"0.00022090","PERIAPSIS":"545.701","DECAY_DATE":null,"SEMIMAJOR_AXIS":"6925.366","RA_OF_ASC_NODE":"121.1472","EPOCH":"2021-09-29T00:03:30.013344","SITE":"AFETR","APOAPSIS":"548.760","CENTER_NAME":"EARTH","TLE_LINE2":"2 45699  53.0528 121.1472 0002209  83.5206 276.6035 15.06394415 74573","OBJECT_NAME":"STARLINK-1398","FILE":"3134986","MEAN_ELEMENT_THEORY":"SGP4","TLE_LINE1":"1 45699U 20035AU  21272.00243071  .00000315  00000-0  40076-4 0  9994","REF_FRAME":"TEME","MEAN_MOTION_DOT":"0.00000315"},{"CLASSIFICATION_TYPE":"U","ARG_OF_PERICENTER":"84.6995","MEAN_MOTION_DDOT":"0.0000000000000","ELEMENT_SET_NO":"999","BSTAR":"0.00011688000000","EPHEMERIS_TYPE":"0","LAUNCH_DATE":"2020-06-04","PERIOD":"95.592","OBJECT_ID":"2020-035AV","NORAD_CAT_ID":"45700","MEAN_ANOMALY":"275.4220","COUNTRY_CODE":"US","RCS_SIZE":"LARGE","INCLINATION":"53.0544","ECCENTRICITY":"0.00019770","OBJECT_TYPE":"PAYLOAD","MEAN_MOTION":"15.06399341","REV_AT_EPOCH":"7427","TIME_SYSTEM":"UTC","GP_ID":"185800789","CENTER_NAME":"EARTH","EPOCH":"2021-09-29T17:29:07.985760","SITE":"AFETR","APOAPSIS":"548.585","TLE_LINE2":"2 45700  53.0544 117.8931 0001977  84.6995 275.4220 15.06399341 74277","RA_OF_ASC_NODE":"117.8931","DECAY_DATE":null,"PERIAPSIS":"545.846","SEMIMAJOR_AXIS":"6925.351","MEAN_MOTION_DOT":"0.00001460","TLE_LINE1":"1 45700U 20035AV  21272.72856465  .00001460  00000-0  11688-3 0  9991","FILE":"3135300","MEAN_ELEMENT_THEORY":"SGP4","OBJECT_NAME":"STARLINK-1400","REF_FRAME":"TEME"},{"REV_AT_EPOCH":"7461","TIME_SYSTEM":"UTC","GP_ID":"185791188","MEAN_MOTION":"15.06392299","OBJECT_TYPE":"PAYLOAD","ECCENTRICITY":"0.00021440","INCLINATION":"53.0525","COUNTRY_CODE":"US","RCS_SIZE":"LARGE","PERIOD":"95.593","LAUNCH_DATE":"2020-06-04","MEAN_ANOMALY":"276.8300","NORAD_CAT_ID":"45701","OBJECT_ID":"2020-035AW","BSTAR":"0.00011756000000","MEAN_MOTION_DDOT":"0.0000000000000","ELEMENT_SET_NO":"999","EPHEMERIS_TYPE":"0","CLASSIFICATION_TYPE":"U","ARG_OF_PERICENTER":"83.2933","REF_FRAME":"TEME","TLE_LINE1":"1 45701U 20035AW  21272.29362617  .00001469  00000-0  11756-3 0  9990","FILE":"3134986","OBJECT_NAME":"STARLINK-1403","MEAN_ELEMENT_THEORY":"SGP4","MEAN_MOTION_DOT":"0.00001469","RA_OF_ASC_NODE":"119.8425","SEMIMAJOR_AXIS":"6925.372","DECAY_DATE":null,"PERIAPSIS":"545.752","TLE_LINE2":"2 45701  53.0525 119.8425 0002144  83.2933 276.8300 15.06392299 74618","CENTER_NAME":"EARTH","APOAPSIS":"548.722","EPOCH":"2021-09-29T07:02:49.301088","SITE":"AFETR"}];
